[{"OBJECT_NAME":"STARLINK-30771","OBJECT_ID":"2023-166V","EPOCH":"2026-03-09T15:27:03.297888","MEAN_MOTION":15.30196951,"ECCENTRICITY":5.45e-5,"INCLINATION":53.159,"RA_OF_ASC_NODE":219.7305,"ARG_OF_PERICENTER":105.8758,"MEAN_ANOMALY":254.2303,"EPHEMERIS_TYPE":0,"CLASSIFICATION_TYPE":"U","NORAD_CAT_ID":58169,"ELEMENT_SET_NO":999,"REV_AT_EPOCH":13317,"BSTAR":0.00013788,"MEAN_MOTION_DOT":3.727e-5,"MEAN_MOTION_DDOT":0},{"OBJECT_NAME":"COSMOS 1953","OBJECT_ID":"1988-050A","EPOCH":"2026-03-09T18:09:26.993952","MEAN_MOTION":15.28528086,"ECCENTRICITY":0.00124769,"INCLINATION":82.5105,"RA_OF_ASC_NODE":158.18,"ARG_OF_PERICENTER":122.2454,"MEAN_ANOMALY":237.9996,"EPHEMERIS_TYPE":0,"CLASSIFICATION_TYPE":"U","NORAD_CAT_ID":19210,"ELEMENT_SET_NO":999,"REV_AT_EPOCH":3779,"BSTAR":0.00029210954,"MEAN_MOTION_DOT":8.158e-5,"MEAN_MOTION_DDOT":0}]
